HELIOS 2A               
1 28492U 04049A   22284.51601924  .00002726  00000+0  26494-3 0  9992
2 28492  98.2439 233.0234 0015600  62.8083 297.4699 14.93423220952448
CFESAT                  
1 30777U 07006F   22284.20403826  .00337440  00000+0  18098-2 0  9998
2 30777  35.4140 246.2879 0005935 210.5575 149.4819 15.78339475867221
SPIRALE A               
1 33751U 09008C   22283.65278321  .00000256  00000+0  10501-2 0  9998
2 33751   1.9795 145.0927 5449265 104.2093 319.7777  4.58873154200103
SPIRALE B               
1 33752U 09008D   22284.19093432  .00004662  00000+0  13998-2 0  9995
2 33752   2.2244  53.0563 6848835 275.9808  16.2784  2.83200470128408
SAPPHIRE                
1 39088U 13009C   22283.79931064  .00000212  00000+0  90514-4 0  9994
2 39088  98.4223 116.6594 0010371 296.9436  63.0689 14.34329768503659
